{
"type": "FeatureCollection",
"name": "Tour",
"crs": { "type": "name", "properties": { "name": "urn:ogc:def:crs:OGC:1.3:CRS84" } },
"features": [
{ "type": "Feature", "properties": { "Image": "    ", "PlaceName": "가톨릭 목포 성지", "MapX": 126.3857937, "MapY": 34.79963019, "TourType": "관광지" }, "geometry": { "type": "Point", "coordinates": [ 126.3857937, 34.79963019 ] } },
{ "type": "Feature", "properties": { "Image": "http://tong.visitkorea.or.kr/cms/resource/60/2515460_image2_1.jpg", "PlaceName": "갓바위 문화타운", "MapX": 126.4209824, "MapY": 34.79365643, "TourType": "관광지" }, "geometry": { "type": "Point", "coordinates": [ 126.4209824, 34.79365643 ] } },
{ "type": "Feature", "properties": { "Image": "http://tong.visitkorea.or.kr/cms/resource/62/2666562_image2_1.jpg", "PlaceName": "강남가든", "MapX": 126.4166407, "MapY": 34.81312362, "TourType": "음식점" }, "geometry": { "type": "Point", "coordinates": [ 126.4166407, 34.81312362 ] } },
{ "type": "Feature", "properties": { "Image": "http://tong.visitkorea.or.kr/cms/resource/63/2666563_image2_1.jpg", "PlaceName": "갯내음", "MapX": 126.4262539, "MapY": 34.80479693, "TourType": "음식점" }, "geometry": { "type": "Point", "coordinates": [ 126.4262539, 34.80479693 ] } },
{ "type": "Feature", "properties": { "Image": "    ", "PlaceName": "경동성당", "MapX": 126.3813389, "MapY": 34.78529006, "TourType": "관광지" }, "geometry": { "type": "Point", "coordinates": [ 126.3813389, 34.78529006 ] } },
{ "type": "Feature", "properties": { "Image": "    ", "PlaceName": "고려삼계탕", "MapX": 126.4227377, "MapY": 34.79870312, "TourType": "음식점" }, "geometry": { "type": "Point", "coordinates": [ 126.4227377, 34.79870312 ] } },
{ "type": "Feature", "properties": { "Image": "http://tong.visitkorea.or.kr/cms/resource/17/2706017_image2_1.jpg", "PlaceName": "고하도 전망대", "MapX": 126.3592244, "MapY": 34.77798219, "TourType": "관광지" }, "geometry": { "type": "Point", "coordinates": [ 126.3592244, 34.77798219 ] } },
{ "type": "Feature", "properties": { "Image": "http://tong.visitkorea.or.kr/cms/resource/11/2676111_image2_1.jpg", "PlaceName": "고하도 해상테마파크", "MapX": 126.3592244, "MapY": 34.77798219, "TourType": "관광지" }, "geometry": { "type": "Point", "coordinates": [ 126.3592244, 34.77798219 ] } },
{ "type": "Feature", "properties": { "Image": "    ", "PlaceName": "고하도선착장", "MapX": 126.3730401, "MapY": 34.76589766, "TourType": "관광지" }, "geometry": { "type": "Point", "coordinates": [ 126.3730401, 34.76589766 ] } },
{ "type": "Feature", "properties": { "Image": "    ", "PlaceName": "고하도이충무공유적", "MapX": 126.3727234, "MapY": 34.76652259, "TourType": "관광지" }, "geometry": { "type": "Point", "coordinates": [ 126.3727234, 34.76652259 ] } },
{ "type": "Feature", "properties": { "Image": "    ", "PlaceName": "고흥삼계탕", "MapX": 126.4362141, "MapY": 34.80636636, "TourType": "음식점" }, "geometry": { "type": "Point", "coordinates": [ 126.4362141, 34.80636636 ] } },
{ "type": "Feature", "properties": { "Image": "    ", "PlaceName": "곰집갈비", "MapX": 126.3843857, "MapY": 34.79324755, "TourType": "음식점" }, "geometry": { "type": "Point", "coordinates": [ 126.3843857, 34.79324755 ] } },
{ "type": "Feature", "properties": { "Image": "    ", "PlaceName": "국립해양유산연구소", "MapX": 126.421688, "MapY": 34.79183443, "TourType": "문화시설" }, "geometry": { "type": "Point", "coordinates": [ 126.421688, 34.79183443 ] } },
{ "type": "Feature", "properties": { "Image": "http://tong.visitkorea.or.kr/cms/resource/55/2657955_image2_1.jpg", "PlaceName": "굴다리쉼터", "MapX": 126.4269152, "MapY": 34.79583406, "TourType": "음식점" }, "geometry": { "type": "Point", "coordinates": [ 126.4269152, 34.79583406 ] } },
{ "type": "Feature", "properties": { "Image": "http://tong.visitkorea.or.kr/cms/resource/02/2662402_image2_1.jpg", "PlaceName": "그대가꽃", "MapX": 126.3810278, "MapY": 34.78562613, "TourType": "음식점" }, "geometry": { "type": "Point", "coordinates": [ 126.3810278, 34.78562613 ] } },
{ "type": "Feature", "properties": { "Image": "http://tong.visitkorea.or.kr/cms/resource/19/2886619_image2_1.jpg", "PlaceName": "금강제화(목포)", "MapX": 126.3842135, "MapY": 34.7905173, "TourType": "쇼핑" }, "geometry": { "type": "Point", "coordinates": [ 126.3842135, 34.7905173 ] } },
{ "type": "Feature", "properties": { "Image": "http://tong.visitkorea.or.kr/cms/resource/67/2666567_image2_1.jpg", "PlaceName": "금모래", "MapX": 126.4301815, "MapY": 34.79639794, "TourType": "음식점" }, "geometry": { "type": "Point", "coordinates": [ 126.4301815, 34.79639794 ] } },
{ "type": "Feature", "properties": { "Image": "http://tong.visitkorea.or.kr/cms/resource/83/2906783_image2_1.gif", "PlaceName": "금성냉면", "MapX": 126.4253733, "MapY": 34.8087187, "TourType": "음식점" }, "geometry": { "type": "Point", "coordinates": [ 126.4253733, 34.8087187 ] } },
{ "type": "Feature", "properties": { "Image": "    ", "PlaceName": "김대중 노벨평화상기념관", "MapX": 126.3922741, "MapY": 34.78283496, "TourType": "문화시설" }, "geometry": { "type": "Point", "coordinates": [ 126.3922741, 34.78283496 ] } },
{ "type": "Feature", "properties": { "Image": "http://tong.visitkorea.or.kr/cms/resource/77/2682477_image2_1.jpg", "PlaceName": "김밥나라 비파", "MapX": 126.4234319, "MapY": 34.80732716, "TourType": "음식점" }, "geometry": { "type": "Point", "coordinates": [ 126.4234319, 34.80732716 ] } },
{ "type": "Feature", "properties": { "Image": "http://tong.visitkorea.or.kr/cms/resource/63/1973163_image2_1.jpg", "PlaceName": "나무포", "MapX": 126.3836191, "MapY": 34.79183103, "TourType": "음식점" }, "geometry": { "type": "Point", "coordinates": [ 126.3836191, 34.79183103 ] } },
{ "type": "Feature", "properties": { "Image": "http://tong.visitkorea.or.kr/cms/resource/84/1971084_image2_1.jpg", "PlaceName": "난전시관", "MapX": 126.3763642, "MapY": 34.79148373, "TourType": "문화시설" }, "geometry": { "type": "Point", "coordinates": [ 126.3763642, 34.79148373 ] } },
{ "type": "Feature", "properties": { "Image": "http://tong.visitkorea.or.kr/cms/resource/80/2682480_image2_1.jpg", "PlaceName": "남경아구찜", "MapX": 126.4201961, "MapY": 34.80561341, "TourType": "음식점" }, "geometry": { "type": "Point", "coordinates": [ 126.4201961, 34.80561341 ] } },
{ "type": "Feature", "properties": { "Image": "http://tong.visitkorea.or.kr/cms/resource/80/2843980_image2_1.jpg", "PlaceName": "남경회관", "MapX": 126.4207128, "MapY": 34.79985851, "TourType": "음식점" }, "geometry": { "type": "Point", "coordinates": [ 126.4207128, 34.79985851 ] } },
{ "type": "Feature", "properties": { "Image": "    ", "PlaceName": "남농기념관", "MapX": 126.4196714, "MapY": 34.79292872, "TourType": "문화시설" }, "geometry": { "type": "Point", "coordinates": [ 126.4196714, 34.79292872 ] } },
{ "type": "Feature", "properties": { "Image": "http://tong.visitkorea.or.kr/cms/resource/68/2666568_image2_1.jpg", "PlaceName": "남해추어탕", "MapX": 126.3918573, "MapY": 34.78929534, "TourType": "음식점" }, "geometry": { "type": "Point", "coordinates": [ 126.3918573, 34.78929534 ] } },
{ "type": "Feature", "properties": { "Image": "http://tong.visitkorea.or.kr/cms/resource/59/2798659_image2_1.JPG", "PlaceName": "노을공원", "MapX": 126.3657758, "MapY": 34.80899547, "TourType": "관광지" }, "geometry": { "type": "Point", "coordinates": [ 126.3657758, 34.80899547 ] } },
{ "type": "Feature", "properties": { "Image": "    ", "PlaceName": "노적봉", "MapX": 126.3795861, "MapY": 34.79158932, "TourType": "관광지" }, "geometry": { "type": "Point", "coordinates": [ 126.3795861, 34.79158932 ] } },
{ "type": "Feature", "properties": { "Image": "http://tong.visitkorea.or.kr/cms/resource/81/2682481_image2_1.jpg", "PlaceName": "놀부정", "MapX": 126.4195545, "MapY": 34.80537731, "TourType": "음식점" }, "geometry": { "type": "Point", "coordinates": [ 126.4195545, 34.80537731 ] } },
{ "type": "Feature", "properties": { "Image": "http://tong.visitkorea.or.kr/cms/resource/19/3321319_image2_1.jpg", "PlaceName": "뉴문마리나", "MapX": 126.3682762, "MapY": 34.78443717, "TourType": "레포츠" }, "geometry": { "type": "Point", "coordinates": [ 126.3682762, 34.78443717 ] } },
{ "type": "Feature", "properties": { "Image": "http://tong.visitkorea.or.kr/cms/resource/73/2682473_image2_1.jpg", "PlaceName": "다우리 해물뼈찜", "MapX": 126.4210043, "MapY": 34.80744099, "TourType": "음식점" }, "geometry": { "type": "Point", "coordinates": [ 126.4210043, 34.80744099 ] } },
{ "type": "Feature", "properties": { "Image": "    ", "PlaceName": "달성사(목포)", "MapX": 126.3753588, "MapY": 34.79028662, "TourType": "관광지" }, "geometry": { "type": "Point", "coordinates": [ 126.3753588, 34.79028662 ] } },
{ "type": "Feature", "properties": { "Image": "http://tong.visitkorea.or.kr/cms/resource/82/2682482_image2_1.jpg", "PlaceName": "담양숯불갈비", "MapX": 126.4278371, "MapY": 34.80514136, "TourType": "음식점" }, "geometry": { "type": "Point", "coordinates": [ 126.4278371, 34.80514136 ] } },
{ "type": "Feature", "properties": { "Image": "    ", "PlaceName": "담을꿈", "MapX": 126.3849218, "MapY": 34.78972295, "TourType": "쇼핑" }, "geometry": { "type": "Point", "coordinates": [ 126.3849218, 34.78972295 ] } },
{ "type": "Feature", "properties": { "Image": "http://tong.visitkorea.or.kr/cms/resource/06/2662406_image2_1.jpg", "PlaceName": "대명관", "MapX": 126.3826055, "MapY": 34.78340418, "TourType": "음식점" }, "geometry": { "type": "Point", "coordinates": [ 126.3826055, 34.78340418 ] } },
{ "type": "Feature", "properties": { "Image": "http://tong.visitkorea.or.kr/cms/resource/78/2682478_image2_1.jpg", "PlaceName": "대성설렁탕", "MapX": 126.4200266, "MapY": 34.8081159, "TourType": "음식점" }, "geometry": { "type": "Point", "coordinates": [ 126.4200266, 34.8081159 ] } },
{ "type": "Feature", "properties": { "Image": "    ", "PlaceName": "더락식향950목포본점", "MapX": 126.4192408, "MapY": 34.79946964, "TourType": "음식점" }, "geometry": { "type": "Point", "coordinates": [ 126.4192408, 34.79946964 ] } },
{ "type": "Feature", "properties": { "Image": "http://tong.visitkorea.or.kr/cms/resource/11/2886611_image2_1.jpg", "PlaceName": "더페이스샵 목포", "MapX": 126.3840441, "MapY": 34.79112834, "TourType": "쇼핑" }, "geometry": { "type": "Point", "coordinates": [ 126.3840441, 34.79112834 ] } },
{ "type": "Feature", "properties": { "Image": "http://tong.visitkorea.or.kr/cms/resource/98/1973198_image2_1.jpg", "PlaceName": "덕인홍어집", "MapX": 126.3849524, "MapY": 34.78914802, "TourType": "음식점" }, "geometry": { "type": "Point", "coordinates": [ 126.3849524, 34.78914802 ] } },
{ "type": "Feature", "properties": { "Image": "http://tong.visitkorea.or.kr/cms/resource/87/2682487_image2_1.jpg", "PlaceName": "독도해물탕", "MapX": 126.4212489, "MapY": 34.79952245, "TourType": "음식점" }, "geometry": { "type": "Point", "coordinates": [ 126.4212489, 34.79952245 ] } },
{ "type": "Feature", "properties": { "Image": "http://tong.visitkorea.or.kr/cms/resource/38/2796638_image2_1.jpg", "PlaceName": "독천골", "MapX": 126.4378363, "MapY": 34.80021986, "TourType": "음식점" }, "geometry": { "type": "Point", "coordinates": [ 126.4378363, 34.80021986 ] } },
{ "type": "Feature", "properties": { "Image": "http://tong.visitkorea.or.kr/cms/resource/85/1912785_image2_1.jpg", "PlaceName": "독천식당", "MapX": 126.3856189, "MapY": 34.79395304, "TourType": "음식점" }, "geometry": { "type": "Point", "coordinates": [ 126.3856189, 34.79395304 ] } },
{ "type": "Feature", "properties": { "Image": "http://tong.visitkorea.or.kr/cms/resource/87/2843987_image2_1.jpg", "PlaceName": "돌집", "MapX": 126.3859995, "MapY": 34.78780097, "TourType": "음식점" }, "geometry": { "type": "Point", "coordinates": [ 126.3859995, 34.78780097 ] } },
{ "type": "Feature", "properties": { "Image": "    ", "PlaceName": "뒷개미술관", "MapX": 126.3758224, "MapY": 34.79724973, "TourType": "음식점" }, "geometry": { "type": "Point", "coordinates": [ 126.3758224, 34.79724973 ] } },
{ "type": "Feature", "properties": { "Image": "http://tong.visitkorea.or.kr/cms/resource/91/2876091_image2_1.JPG", "PlaceName": "뜰채", "MapX": 126.3685563, "MapY": 34.79969934, "TourType": "음식점" }, "geometry": { "type": "Point", "coordinates": [ 126.3685563, 34.79969934 ] } },
{ "type": "Feature", "properties": { "Image": "http://tong.visitkorea.or.kr/cms/resource/55/2886655_image2_1.jpg", "PlaceName": "롯데마트_목포점", "MapX": 126.4294788, "MapY": 34.79728394, "TourType": "쇼핑" }, "geometry": { "type": "Point", "coordinates": [ 126.4294788, 34.79728394 ] } },
{ "type": "Feature", "properties": { "Image": "http://tong.visitkorea.or.kr/cms/resource/58/2886658_image2_1.jpg", "PlaceName": "롯데하이마트 목포롯데마트점", "MapX": 126.4294788, "MapY": 34.79728394, "TourType": "쇼핑" }, "geometry": { "type": "Point", "coordinates": [ 126.4294788, 34.79728394 ] } },
{ "type": "Feature", "properties": { "Image": "http://tong.visitkorea.or.kr/cms/resource/87/1973387_image2_1.jpg", "PlaceName": "만호유달횟집", "MapX": 126.3844969, "MapY": 34.78615668, "TourType": "음식점" }, "geometry": { "type": "Point", "coordinates": [ 126.3844969, 34.78615668 ] } },
{ "type": "Feature", "properties": { "Image": "http://tong.visitkorea.or.kr/cms/resource/43/2682443_image2_1.jpg", "PlaceName": "맛천지", "MapX": 126.4320089, "MapY": 34.80559138, "TourType": "음식점" }, "geometry": { "type": "Point", "coordinates": [ 126.4320089, 34.80559138 ] } },
{ "type": "Feature", "properties": { "Image": "http://tong.visitkorea.or.kr/cms/resource/82/2714682_image2_1.jpg", "PlaceName": "멜라콩다리 비석", "MapX": 126.3863994, "MapY": 34.79049789, "TourType": "관광지" }, "geometry": { "type": "Point", "coordinates": [ 126.3863994, 34.79049789 ] } },
{ "type": "Feature", "properties": { "Image": "    ", "PlaceName": "명인집", "MapX": 126.4222461, "MapY": 34.79890309, "TourType": "음식점" }, "geometry": { "type": "Point", "coordinates": [ 126.4222461, 34.79890309 ] } },
{ "type": "Feature", "properties": { "Image": "http://tong.visitkorea.or.kr/cms/resource/11/2662411_image2_1.jpg", "PlaceName": "모아음식점", "MapX": 126.3869078, "MapY": 34.78757045, "TourType": "음식점" }, "geometry": { "type": "Point", "coordinates": [ 126.3869078, 34.78757045 ] } },
{ "type": "Feature", "properties": { "Image": "    ", "PlaceName": "목포 갓바위", "MapX": 126.4250321, "MapY": 34.79346486, "TourType": "관광지" }, "geometry": { "type": "Point", "coordinates": [ 126.4250321, 34.79346486 ] } },
{ "type": "Feature", "properties": { "Image": "http://tong.visitkorea.or.kr/cms/resource/27/3054727_image2_1.jpg", "PlaceName": "목포 관광특구", "MapX": 126.3735867, "MapY": 34.79062267, "TourType": "관광지" }, "geometry": { "type": "Point", "coordinates": [ 126.3735867, 34.79062267 ] } },
{ "type": "Feature", "properties": { "Image": "    ", "PlaceName": "목포 국가무형문화재전수교육관", "MapX": 126.4159607, "MapY": 34.7927259, "TourType": "문화시설" }, "geometry": { "type": "Point", "coordinates": [ 126.4159607, 34.7927259 ] } },
{ "type": "Feature", "properties": { "Image": "    ", "PlaceName": "목포 대중음악의 전당", "MapX": 126.3861856, "MapY": 34.78888418, "TourType": "문화시설" }, "geometry": { "type": "Point", "coordinates": [ 126.3861856, 34.78888418 ] } },
{ "type": "Feature", "properties": { "Image": "    ", "PlaceName": "목포 동부시장", "MapX": 126.3921097, "MapY": 34.80412423, "TourType": "쇼핑" }, "geometry": { "type": "Point", "coordinates": [ 126.3921097, 34.80412423 ] } },
{ "type": "Feature", "properties": { "Image": "http://tong.visitkorea.or.kr/cms/resource/74/2798674_image2_1.JPG", "PlaceName": "목포 북항", "MapX": 126.3651121, "MapY": 34.80451263, "TourType": "관광지" }, "geometry": { "type": "Point", "coordinates": [ 126.3651121, 34.80451263 ] } },
{ "type": "Feature", "properties": { "Image": "    ", "PlaceName": "목포 서산동 보리마당&시화마을", "MapX": 126.3773227, "MapY": 34.78178483, "TourType": "관광지" }, "geometry": { "type": "Point", "coordinates": [ 126.3773227, 34.78178483 ] } },
{ "type": "Feature", "properties": { "Image": "    ", "PlaceName": "목포 스카이워크", "MapX": 126.3673595, "MapY": 34.78776733, "TourType": "관광지" }, "geometry": { "type": "Point", "coordinates": [ 126.3673595, 34.78776733 ] } },
{ "type": "Feature", "properties": { "Image": "http://tong.visitkorea.or.kr/cms/resource/50/1163350_image2_1.jpg", "PlaceName": "목포 신중앙시장", "MapX": 126.3775525, "MapY": 34.81023163, "TourType": "쇼핑" }, "geometry": { "type": "Point", "coordinates": [ 126.3775525, 34.81023163 ] } },
{ "type": "Feature", "properties": { "Image": "    ", "PlaceName": "목포 오포대", "MapX": 126.3763447, "MapY": 34.7915365, "TourType": "관광지" }, "geometry": { "type": "Point", "coordinates": [ 126.3763447, 34.7915365 ] } },
{ "type": "Feature", "properties": { "Image": "http://tong.visitkorea.or.kr/cms/resource/95/2050595_image2_1.jpg", "PlaceName": "목포 자유시장 (남진야시장)", "MapX": 126.4029507, "MapY": 34.79305343, "TourType": "쇼핑" }, "geometry": { "type": "Point", "coordinates": [ 126.4029507, 34.79305343 ] } },
{ "type": "Feature", "properties": { "Image": "    ", "PlaceName": "목포 정광정혜원", "MapX": 126.3828303, "MapY": 34.789959, "TourType": "관광지" }, "geometry": { "type": "Point", "coordinates": [ 126.3828303, 34.789959 ] } },
{ "type": "Feature", "properties": { "Image": "http://tong.visitkorea.or.kr/cms/resource/86/2043486_image2_1.jpg", "PlaceName": "목포 종합수산시장", "MapX": 126.3901047, "MapY": 34.78785936, "TourType": "쇼핑" }, "geometry": { "type": "Point", "coordinates": [ 126.3901047, 34.78785936 ] } },
{ "type": "Feature", "properties": { "Image": "http://tong.visitkorea.or.kr/cms/resource/03/3060703_image2_1.jpg", "PlaceName": "목포 청호시장", "MapX": 126.424626, "MapY": 34.81536516, "TourType": "쇼핑" }, "geometry": { "type": "Point", "coordinates": [ 126.424626, 34.81536516 ] } },
{ "type": "Feature", "properties": { "Image": "http://tong.visitkorea.or.kr/cms/resource/53/2640153_image2_1.jpg", "PlaceName": "목포 해상케이블카", "MapX": 126.3700534, "MapY": 34.79941606, "TourType": "관광지" }, "geometry": { "type": "Point", "coordinates": [ 126.3700534, 34.79941606 ] } },
{ "type": "Feature", "properties": { "Image": "    ", "PlaceName": "목포근대역사관 1관", "MapX": 126.3820943, "MapY": 34.78758704, "TourType": "문화시설" }, "geometry": { "type": "Point", "coordinates": [ 126.3820943, 34.78758704 ] } },
{ "type": "Feature", "properties": { "Image": "http://tong.visitkorea.or.kr/cms/resource/12/2607312_image2_1.jpg", "PlaceName": "목포근대역사관 2관", "MapX": 126.3815028, "MapY": 34.78603442, "TourType": "문화시설" }, "geometry": { "type": "Point", "coordinates": [ 126.3815028, 34.78603442 ] } },
{ "type": "Feature", "properties": { "Image": "http://tong.visitkorea.or.kr/cms/resource/14/1996014_image2_1.jpg", "PlaceName": "목포근대역사문화공간", "MapX": 126.3817999, "MapY": 34.78773702, "TourType": "관광지" }, "geometry": { "type": "Point", "coordinates": [ 126.3817999, 34.78773702 ] } },
{ "type": "Feature", "properties": { "Image": "    ", "PlaceName": "목포농산물도매시장(목포원예농협농산물공판장)", "MapX": 126.4252036, "MapY": 34.82195054, "TourType": "쇼핑" }, "geometry": { "type": "Point", "coordinates": [ 126.4252036, 34.82195054 ] } },
{ "type": "Feature", "properties": { "Image": "    ", "PlaceName": "목포대교", "MapX": 126.3604293, "MapY": 34.79889374, "TourType": "관광지" }, "geometry": { "type": "Point", "coordinates": [ 126.3604293, 34.79889374 ] } },
{ "type": "Feature", "properties": { "Image": "http://tong.visitkorea.or.kr/cms/resource/84/2666584_image2_1.jpg", "PlaceName": "목포무안짚불구이", "MapX": 126.4225736, "MapY": 34.80981575, "TourType": "음식점" }, "geometry": { "type": "Point", "coordinates": [ 126.4225736, 34.80981575 ] } },
{ "type": "Feature", "properties": { "Image": "    ", "PlaceName": "목포문학관", "MapX": 126.4169495, "MapY": 34.79279258, "TourType": "문화시설" }, "geometry": { "type": "Point", "coordinates": [ 126.4169495, 34.79279258 ] } },
{ "type": "Feature", "properties": { "Image": "    ", "PlaceName": "목포문화예술회관", "MapX": 126.4183049, "MapY": 34.79173161, "TourType": "문화시설" }, "geometry": { "type": "Point", "coordinates": [ 126.4183049, 34.79173161 ] } },
{ "type": "Feature", "properties": { "Image": "    ", "PlaceName": "목포문화원 (구 호남은행)", "MapX": 126.3861523, "MapY": 34.78878419, "TourType": "문화시설" }, "geometry": { "type": "Point", "coordinates": [ 126.3861523, 34.78878419 ] } },
{ "type": "Feature", "properties": { "Image": "http://tong.visitkorea.or.kr/cms/resource/55/2682455_image2_1.jpg", "PlaceName": "목포생갈비", "MapX": 126.431673, "MapY": 34.80120576, "TourType": "음식점" }, "geometry": { "type": "Point", "coordinates": [ 126.431673, 34.80120576 ] } },
{ "type": "Feature", "properties": { "Image": "http://tong.visitkorea.or.kr/cms/resource/67/2682467_image2_1.jpg", "PlaceName": "목포스타", "MapX": 126.4233457, "MapY": 34.80853535, "TourType": "음식점" }, "geometry": { "type": "Point", "coordinates": [ 126.4233457, 34.80853535 ] } },
{ "type": "Feature", "properties": { "Image": "    ", "PlaceName": "목포시립도서관", "MapX": 126.4030949, "MapY": 34.80345504, "TourType": "문화시설" }, "geometry": { "type": "Point", "coordinates": [ 126.4030949, 34.80345504 ] } },
{ "type": "Feature", "properties": { "Image": "http://tong.visitkorea.or.kr/cms/resource/84/2798684_image2_1.JPG", "PlaceName": "목포시민문화체육센터 (공연장  문화시설)", "MapX": 126.438036, "MapY": 34.81235461, "TourType": "문화시설" }, "geometry": { "type": "Point", "coordinates": [ 126.438036, 34.81235461 ] } },
{ "type": "Feature", "properties": { "Image": "    ", "PlaceName": "목포시사", "MapX": 126.3773086, "MapY": 34.79005613, "TourType": "관광지" }, "geometry": { "type": "Point", "coordinates": [ 126.3773086, 34.79005613 ] } },
{ "type": "Feature", "properties": { "Image": "http://tong.visitkorea.or.kr/cms/resource/08/1970508_image2_1.jpg", "PlaceName": "목포시청소년수련관", "MapX": 126.4108021, "MapY": 34.8221975, "TourType": "레포츠" }, "geometry": { "type": "Point", "coordinates": [ 126.4108021, 34.8221975 ] } },
{ "type": "Feature", "properties": { "Image": "    ", "PlaceName": "목포양동교회", "MapX": 126.3805054, "MapY": 34.79556389, "TourType": "관광지" }, "geometry": { "type": "Point", "coordinates": [ 126.3805054, 34.79556389 ] } },
{ "type": "Feature", "properties": { "Image": "http://tong.visitkorea.or.kr/cms/resource/92/2617992_image2_1.jpg", "PlaceName": "목포어린이바다과학관", "MapX": 126.3888966, "MapY": 34.78204055, "TourType": "문화시설" }, "geometry": { "type": "Point", "coordinates": [ 126.3888966, 34.78204055 ] } },
{ "type": "Feature", "properties": { "Image": "http://tong.visitkorea.or.kr/cms/resource/96/2707896_image2_1.jpg", "PlaceName": "목포연안여객선터미널", "MapX": 126.3841915, "MapY": 34.78204881, "TourType": "관광지" }, "geometry": { "type": "Point", "coordinates": [ 126.3841915, 34.78204881 ] } },
{ "type": "Feature", "properties": { "Image": "    ", "PlaceName": "목포이안경원", "MapX": 126.380536, "MapY": 34.79154212, "TourType": "쇼핑" }, "geometry": { "type": "Point", "coordinates": [ 126.380536, 34.79154212 ] } },
{ "type": "Feature", "properties": { "Image": "http://tong.visitkorea.or.kr/cms/resource/54/3011154_image2_1.jpg", "PlaceName": "목포자연사박물관", "MapX": 126.4209713, "MapY": 34.79371476, "TourType": "문화시설" }, "geometry": { "type": "Point", "coordinates": [ 126.4209713, 34.79371476 ] } },
{ "type": "Feature", "properties": { "Image": "    ", "PlaceName": "목포평화광장", "MapX": 126.4338007, "MapY": 34.79670075, "TourType": "관광지" }, "geometry": { "type": "Point", "coordinates": [ 126.4338007, 34.79670075 ] } },
{ "type": "Feature", "properties": { "Image": "http://tong.visitkorea.or.kr/cms/resource/01/2798701_image2_1.JPG", "PlaceName": "목포항", "MapX": 126.3841915, "MapY": 34.78204881, "TourType": "관광지" }, "geometry": { "type": "Point", "coordinates": [ 126.3841915, 34.78204881 ] } },
{ "type": "Feature", "properties": { "Image": "http://tong.visitkorea.or.kr/cms/resource/47/2682447_image2_1.jpg", "PlaceName": "못난이아구찜", "MapX": 126.4287814, "MapY": 34.80723837, "TourType": "음식점" }, "geometry": { "type": "Point", "coordinates": [ 126.4287814, 34.80723837 ] } },
{ "type": "Feature", "properties": { "Image": "http://tong.visitkorea.or.kr/cms/resource/68/2682468_image2_1.jpg", "PlaceName": "무진장꼬리곰탕", "MapX": 126.4287066, "MapY": 34.79958923, "TourType": "음식점" }, "geometry": { "type": "Point", "coordinates": [ 126.4287066, 34.79958923 ] } },
{ "type": "Feature", "properties": { "Image": "http://tong.visitkorea.or.kr/cms/resource/83/2682483_image2_1.jpg", "PlaceName": "미래식당", "MapX": 126.4202016, "MapY": 34.80575228, "TourType": "음식점" }, "geometry": { "type": "Point", "coordinates": [ 126.4202016, 34.80575228 ] } },
{ "type": "Feature", "properties": { "Image": "    ", "PlaceName": "미항횟집", "MapX": 126.4379696, "MapY": 34.80025041, "TourType": "음식점" }, "geometry": { "type": "Point", "coordinates": [ 126.4379696, 34.80025041 ] } },
{ "type": "Feature", "properties": { "Image": "    ", "PlaceName": "밀레(전남목포점)", "MapX": 126.3852301, "MapY": 34.79072562, "TourType": "쇼핑" }, "geometry": { "type": "Point", "coordinates": [ 126.3852301, 34.79072562 ] } },
{ "type": "Feature", "properties": { "Image": "http://tong.visitkorea.or.kr/cms/resource/88/2666588_image2_1.jpg", "PlaceName": "바담", "MapX": 126.3651898, "MapY": 34.80751229, "TourType": "음식점" }, "geometry": { "type": "Point", "coordinates": [ 126.3651898, 34.80751229 ] } },
{ "type": "Feature", "properties": { "Image": "    ", "PlaceName": "백두천지", "MapX": 126.4296287, "MapY": 34.80264168, "TourType": "음식점" }, "geometry": { "type": "Point", "coordinates": [ 126.4296287, 34.80264168 ] } },
{ "type": "Feature", "properties": { "Image": "http://tong.visitkorea.or.kr/cms/resource/50/2682450_image2_1.jpg", "PlaceName": "백제돼지갈비", "MapX": 126.4309729, "MapY": 34.8046137, "TourType": "음식점" }, "geometry": { "type": "Point", "coordinates": [ 126.4309729, 34.8046137 ] } },
{ "type": "Feature", "properties": { "Image": "http://tong.visitkorea.or.kr/cms/resource/52/2682452_image2_1.jpg", "PlaceName": "부리나치킨 목포하당", "MapX": 126.4311285, "MapY": 34.80200288, "TourType": "음식점" }, "geometry": { "type": "Point", "coordinates": [ 126.4311285, 34.80200288 ] } },
{ "type": "Feature", "properties": { "Image": "    ", "PlaceName": "부주산 반려동물놀이터", "MapX": 126.4294784, "MapY": 34.81452367, "TourType": "관광지" }, "geometry": { "type": "Point", "coordinates": [ 126.4294784, 34.81452367 ] } },
{ "type": "Feature", "properties": { "Image": "    ", "PlaceName": "블루페페", "MapX": 126.3865132, "MapY": 34.79365587, "TourType": "쇼핑" }, "geometry": { "type": "Point", "coordinates": [ 126.3865132, 34.79365587 ] } },
{ "type": "Feature", "properties": { "Image": "http://tong.visitkorea.or.kr/cms/resource/37/401337_image2_1.jpg", "PlaceName": "사계절복집", "MapX": 126.4353144, "MapY": 34.79869221, "TourType": "음식점" }, "geometry": { "type": "Point", "coordinates": [ 126.4353144, 34.79869221 ] } },
{ "type": "Feature", "properties": { "Image": "http://tong.visitkorea.or.kr/cms/resource/91/2666591_image2_1.jpg", "PlaceName": "산내들식육식당", "MapX": 126.435928, "MapY": 34.80573865, "TourType": "음식점" }, "geometry": { "type": "Point", "coordinates": [ 126.435928, 34.80573865 ] } },
{ "type": "Feature", "properties": { "Image": "http://tong.visitkorea.or.kr/cms/resource/92/2666592_image2_1.jpg", "PlaceName": "산수정", "MapX": 126.4268263, "MapY": 34.79598127, "TourType": "음식점" }, "geometry": { "type": "Point", "coordinates": [ 126.4268263, 34.79598127 ] } },
{ "type": "Feature", "properties": { "Image": "    ", "PlaceName": "삼학도", "MapX": 126.3913686, "MapY": 34.78209336, "TourType": "관광지" }, "geometry": { "type": "Point", "coordinates": [ 126.3913686, 34.78209336 ] } },
{ "type": "Feature", "properties": { "Image": "http://tong.visitkorea.or.kr/cms/resource/80/2796480_image2_1.jpg", "PlaceName": "삼학도공원", "MapX": 126.3897827, "MapY": 34.78244885, "TourType": "관광지" }, "geometry": { "type": "Point", "coordinates": [ 126.3897827, 34.78244885 ] } },
{ "type": "Feature", "properties": { "Image": "http://tong.visitkorea.or.kr/cms/resource/34/2733134_image2_1.jpg", "PlaceName": "삼학도크루즈", "MapX": 126.3881329, "MapY": 34.78087123, "TourType": "관광지" }, "geometry": { "type": "Point", "coordinates": [ 126.3881329, 34.78087123 ] } },
{ "type": "Feature", "properties": { "Image": "http://tong.visitkorea.or.kr/cms/resource/58/2682458_image2_1.jpg", "PlaceName": "서울식당", "MapX": 126.4201989, "MapY": 34.80490238, "TourType": "음식점" }, "geometry": { "type": "Point", "coordinates": [ 126.4201989, 34.80490238 ] } },
{ "type": "Feature", "properties": { "Image": "http://tong.visitkorea.or.kr/cms/resource/48/2858648_image2_1.jpg", "PlaceName": "선경준치회집", "MapX": 126.3707705, "MapY": 34.78081261, "TourType": "음식점" }, "geometry": { "type": "Point", "coordinates": [ 126.3707705, 34.78081261 ] } },
{ "type": "Feature", "properties": { "Image": "    ", "PlaceName": "선창횟집", "MapX": 126.3813361, "MapY": 34.78418463, "TourType": "음식점" }, "geometry": { "type": "Point", "coordinates": [ 126.3813361, 34.78418463 ] } },
{ "type": "Feature", "properties": { "Image": "    ", "PlaceName": "성균관", "MapX": 126.4218597, "MapY": 34.80945189, "TourType": "음식점" }, "geometry": { "type": "Point", "coordinates": [ 126.4218597, 34.80945189 ] } },
{ "type": "Feature", "properties": { "Image": "http://tong.visitkorea.or.kr/cms/resource/01/2891401_image2_1.JPG", "PlaceName": "성식당", "MapX": 126.386519, "MapY": 34.78567066, "TourType": "음식점" }, "geometry": { "type": "Point", "coordinates": [ 126.386519, 34.78567066 ] } },
{ "type": "Feature", "properties": { "Image": "    ", "PlaceName": "세월호목포신항만거치", "MapX": 126.3546169, "MapY": 34.75939532, "TourType": "문화시설" }, "geometry": { "type": "Point", "coordinates": [ 126.3546169, 34.75939532 ] } },
{ "type": "Feature", "properties": { "Image": "http://tong.visitkorea.or.kr/cms/resource/94/2666594_image2_1.jpg", "PlaceName": "소담", "MapX": 126.4323785, "MapY": 34.79965595, "TourType": "음식점" }, "geometry": { "type": "Point", "coordinates": [ 126.4323785, 34.79965595 ] } },
{ "type": "Feature", "properties": { "Image": "http://tong.visitkorea.or.kr/cms/resource/03/2876103_image2_1.JPG", "PlaceName": "소래기냉면", "MapX": 126.429715, "MapY": 34.79453148, "TourType": "음식점" }, "geometry": { "type": "Point", "coordinates": [ 126.429715, 34.79453148 ] } },
{ "type": "Feature", "properties": { "Image": "    ", "PlaceName": "소이목포중앙점", "MapX": 126.3836274, "MapY": 34.79226709, "TourType": "쇼핑" }, "geometry": { "type": "Point", "coordinates": [ 126.3836274, 34.79226709 ] } },
{ "type": "Feature", "properties": { "Image": "http://tong.visitkorea.or.kr/cms/resource/45/2682445_image2_1.jpg", "PlaceName": "송가네황칠바다장어", "MapX": 126.4445216, "MapY": 34.81199365, "TourType": "음식점" }, "geometry": { "type": "Point", "coordinates": [ 126.4445216, 34.81199365 ] } },
{ "type": "Feature", "properties": { "Image": "    ", "PlaceName": "송옥사", "MapX": 126.3838135, "MapY": 34.7917977, "TourType": "쇼핑" }, "geometry": { "type": "Point", "coordinates": [ 126.3838135, 34.7917977 ] } },
{ "type": "Feature", "properties": { "Image": "http://tong.visitkorea.or.kr/cms/resource/34/2886634_image2_1.jpg", "PlaceName": "송옥사(목포)", "MapX": 126.3838135, "MapY": 34.7917977, "TourType": "쇼핑" }, "geometry": { "type": "Point", "coordinates": [ 126.3838135, 34.7917977 ] } },
{ "type": "Feature", "properties": { "Image": "    ", "PlaceName": "송학낙지회관", "MapX": 126.4221544, "MapY": 34.79852813, "TourType": "음식점" }, "geometry": { "type": "Point", "coordinates": [ 126.4221544, 34.79852813 ] } },
{ "type": "Feature", "properties": { "Image": "    ", "PlaceName": "시골집순두부", "MapX": 126.4358141, "MapY": 34.80673854, "TourType": "음식점" }, "geometry": { "type": "Point", "coordinates": [ 126.4358141, 34.80673854 ] } },
{ "type": "Feature", "properties": { "Image": "http://tong.visitkorea.or.kr/cms/resource/06/1971106_image2_1.jpg", "PlaceName": "신안문화원", "MapX": 126.3849858, "MapY": 34.78444022, "TourType": "문화시설" }, "geometry": { "type": "Point", "coordinates": [ 126.3849858, 34.78444022 ] } },
{ "type": "Feature", "properties": { "Image": "http://tong.visitkorea.or.kr/cms/resource/21/1996521_image2_1.jpg", "PlaceName": "신안뻘낙지", "MapX": 126.3860743, "MapY": 34.79642777, "TourType": "음식점" }, "geometry": { "type": "Point", "coordinates": [ 126.3860743, 34.79642777 ] } },
{ "type": "Feature", "properties": { "Image": "http://tong.visitkorea.or.kr/cms/resource/57/2682457_image2_1.jpg", "PlaceName": "신흥진식당", "MapX": 126.4186407, "MapY": 34.80457183, "TourType": "음식점" }, "geometry": { "type": "Point", "coordinates": [ 126.4186407, 34.80457183 ] } },
{ "type": "Feature", "properties": { "Image": "http://tong.visitkorea.or.kr/cms/resource/25/2674025_image2_1.jpg", "PlaceName": "쑥꿀레", "MapX": 126.3830914, "MapY": 34.79181991, "TourType": "음식점" }, "geometry": { "type": "Point", "coordinates": [ 126.3830914, 34.79181991 ] } },
{ "type": "Feature", "properties": { "Image": "http://tong.visitkorea.or.kr/cms/resource/24/2674024_image2_1.jpg", "PlaceName": "쑥꿀레 평화광장", "MapX": 126.4347978, "MapY": 34.7969674, "TourType": "음식점" }, "geometry": { "type": "Point", "coordinates": [ 126.4347978, 34.7969674 ] } },
{ "type": "Feature", "properties": { "Image": "http://tong.visitkorea.or.kr/cms/resource/86/2682486_image2_1.jpg", "PlaceName": "야드레보쌈", "MapX": 126.4260402, "MapY": 34.79809491, "TourType": "음식점" }, "geometry": { "type": "Point", "coordinates": [ 126.4260402, 34.79809491 ] } },
{ "type": "Feature", "properties": { "Image": "http://tong.visitkorea.or.kr/cms/resource/27/2876127_image2_1.JPG", "PlaceName": "어나더키친 목포점", "MapX": 126.4378336, "MapY": 34.79873392, "TourType": "음식점" }, "geometry": { "type": "Point", "coordinates": [ 126.4378336, 34.79873392 ] } },
{ "type": "Feature", "properties": { "Image": "http://tong.visitkorea.or.kr/cms/resource/60/2682460_image2_1.jpg", "PlaceName": "어머니밥상", "MapX": 126.4179436, "MapY": 34.80379969, "TourType": "음식점" }, "geometry": { "type": "Point", "coordinates": [ 126.4179436, 34.80379969 ] } },
{ "type": "Feature", "properties": { "Image": "    ", "PlaceName": "에스핏", "MapX": 126.3835524, "MapY": 34.79258094, "TourType": "쇼핑" }, "geometry": { "type": "Point", "coordinates": [ 126.3835524, 34.79258094 ] } },
{ "type": "Feature", "properties": { "Image": "http://tong.visitkorea.or.kr/cms/resource/99/2886599_image2_1.jpg", "PlaceName": "에스핏(목포)", "MapX": 126.3835524, "MapY": 34.79258094, "TourType": "쇼핑" }, "geometry": { "type": "Point", "coordinates": [ 126.3835524, 34.79258094 ] } },
{ "type": "Feature", "properties": { "Image": "http://tong.visitkorea.or.kr/cms/resource/98/2666598_image2_1.jpg", "PlaceName": "연잎향", "MapX": 126.3815333, "MapY": 34.78526507, "TourType": "음식점" }, "geometry": { "type": "Point", "coordinates": [ 126.3815333, 34.78526507 ] } },
{ "type": "Feature", "properties": { "Image": "http://tong.visitkorea.or.kr/cms/resource/01/2796501_image2_1.jpg", "PlaceName": "연희네슈퍼", "MapX": 126.3773227, "MapY": 34.78178483, "TourType": "관광지" }, "geometry": { "type": "Point", "coordinates": [ 126.3773227, 34.78178483 ] } },
{ "type": "Feature", "properties": { "Image": "http://tong.visitkorea.or.kr/cms/resource/34/2742434_image2_1.jpg", "PlaceName": "영란횟집", "MapX": 126.3840775, "MapY": 34.78615945, "TourType": "음식점" }, "geometry": { "type": "Point", "coordinates": [ 126.3840775, 34.78615945 ] } },
{ "type": "Feature", "properties": { "Image": "http://tong.visitkorea.or.kr/cms/resource/39/2798739_image2_1.JPG", "PlaceName": "영산강하구둑인증센터", "MapX": 126.4458522, "MapY": 34.80211145, "TourType": "레포츠" }, "geometry": { "type": "Point", "coordinates": [ 126.4458522, 34.80211145 ] } },
{ "type": "Feature", "properties": { "Image": "http://tong.visitkorea.or.kr/cms/resource/99/2666599_image2_1.jpg", "PlaceName": "예향회정식", "MapX": 126.4299316, "MapY": 34.79485367, "TourType": "음식점" }, "geometry": { "type": "Point", "coordinates": [ 126.4299316, 34.79485367 ] } },
{ "type": "Feature", "properties": { "Image": "http://tong.visitkorea.or.kr/cms/resource/32/3011332_image2_1.jpg", "PlaceName": "오거리문화센터(구 동본원사 목포별원)", "MapX": 126.3842969, "MapY": 34.7896785, "TourType": "관광지" }, "geometry": { "type": "Point", "coordinates": [ 126.3842969, 34.7896785 ] } },
{ "type": "Feature", "properties": { "Image": "    ", "PlaceName": "옥단이길", "MapX": 126.3821331, "MapY": 34.79105054, "TourType": "관광지" }, "geometry": { "type": "Point", "coordinates": [ 126.3821331, 34.79105054 ] } },
{ "type": "Feature", "properties": { "Image": "http://tong.visitkorea.or.kr/cms/resource/53/2886653_image2_1.jpg", "PlaceName": "올리브영 목포평화광장", "MapX": 126.4326535, "MapY": 34.79848941, "TourType": "쇼핑" }, "geometry": { "type": "Point", "coordinates": [ 126.4326535, 34.79848941 ] } },
{ "type": "Feature", "properties": { "Image": "http://tong.visitkorea.or.kr/cms/resource/30/2886630_image2_1.jpg", "PlaceName": "올리비아로렌 목포점", "MapX": 126.3842052, "MapY": 34.79144219, "TourType": "쇼핑" }, "geometry": { "type": "Point", "coordinates": [ 126.3842052, 34.79144219 ] } },
{ "type": "Feature", "properties": { "Image": "    ", "PlaceName": "올리비아로렌목포대리점", "MapX": 126.3835524, "MapY": 34.79258094, "TourType": "쇼핑" }, "geometry": { "type": "Point", "coordinates": [ 126.3835524, 34.79258094 ] } },
{ "type": "Feature", "properties": { "Image": "http://tong.visitkorea.or.kr/cms/resource/15/2886615_image2_1.jpg", "PlaceName": "올포유(목포)", "MapX": 126.3832136, "MapY": 34.79213932, "TourType": "쇼핑" }, "geometry": { "type": "Point", "coordinates": [ 126.3832136, 34.79213932 ] } },
{ "type": "Feature", "properties": { "Image": "http://tong.visitkorea.or.kr/cms/resource/11/2497011_image2_1.jpeg", "PlaceName": "외달도", "MapX": 126.2963937, "MapY": 34.7817113, "TourType": "관광지" }, "geometry": { "type": "Point", "coordinates": [ 126.2963937, 34.7817113 ] } },
{ "type": "Feature", "properties": { "Image": "    ", "PlaceName": "외달도 해수욕장", "MapX": 126.2941828, "MapY": 34.78064194, "TourType": "관광지" }, "geometry": { "type": "Point", "coordinates": [ 126.2941828, 34.78064194 ] } },
{ "type": "Feature", "properties": { "Image": "    ", "PlaceName": "요트 마리나 (목포)", "MapX": 126.3901909, "MapY": 34.78381537, "TourType": "레포츠" }, "geometry": { "type": "Point", "coordinates": [ 126.3901909, 34.78381537 ] } },
{ "type": "Feature", "properties": { "Image": "http://tong.visitkorea.or.kr/cms/resource/49/2682449_image2_1.jpg", "PlaceName": "우리집식육식당", "MapX": 126.4322145, "MapY": 34.80534975, "TourType": "음식점" }, "geometry": { "type": "Point", "coordinates": [ 126.4322145, 34.80534975 ] } },
{ "type": "Feature", "properties": { "Image": "http://tong.visitkorea.or.kr/cms/resource/05/2844005_image2_1.jpg", "PlaceName": "우정식육식당", "MapX": 126.4270733, "MapY": 34.80582739, "TourType": "음식점" }, "geometry": { "type": "Point", "coordinates": [ 126.4270733, 34.80582739 ] } },
{ "type": "Feature", "properties": { "Image": "http://tong.visitkorea.or.kr/cms/resource/65/2843965_image2_1.jpg", "PlaceName": "원조제일돌곱창", "MapX": 126.382386, "MapY": 34.7847568, "TourType": "음식점" }, "geometry": { "type": "Point", "coordinates": [ 126.382386, 34.7847568 ] } },
{ "type": "Feature", "properties": { "Image": "http://tong.visitkorea.or.kr/cms/resource/85/2682485_image2_1.jpg", "PlaceName": "월출식당", "MapX": 126.4179574, "MapY": 34.80361082, "TourType": "음식점" }, "geometry": { "type": "Point", "coordinates": [ 126.4179574, 34.80361082 ] } },
{ "type": "Feature", "properties": { "Image": "http://tong.visitkorea.or.kr/cms/resource/49/2886649_image2_1.jpg", "PlaceName": "유니클로 상동", "MapX": 126.433209, "MapY": 34.80050864, "TourType": "쇼핑" }, "geometry": { "type": "Point", "coordinates": [ 126.433209, 34.80050864 ] } },
{ "type": "Feature", "properties": { "Image": "http://tong.visitkorea.or.kr/cms/resource/03/2666603_image2_1.jpg", "PlaceName": "유달면옥", "MapX": 126.4441244, "MapY": 34.81192976, "TourType": "음식점" }, "geometry": { "type": "Point", "coordinates": [ 126.4441244, 34.81192976 ] } },
{ "type": "Feature", "properties": { "Image": "    ", "PlaceName": "유달산", "MapX": 126.371359, "MapY": 34.79427222, "TourType": "관광지" }, "geometry": { "type": "Point", "coordinates": [ 126.371359, 34.79427222 ] } },
{ "type": "Feature", "properties": { "Image": "    ", "PlaceName": "유달산 달성공원", "MapX": 126.3736116, "MapY": 34.79213639, "TourType": "관광지" }, "geometry": { "type": "Point", "coordinates": [ 126.3736116, 34.79213639 ] } },
{ "type": "Feature", "properties": { "Image": "http://tong.visitkorea.or.kr/cms/resource/56/2511656_image2_1.jpg", "PlaceName": "유달산 둘레길", "MapX": 126.3693563, "MapY": 34.7973274, "TourType": "레포츠" }, "geometry": { "type": "Point", "coordinates": [ 126.3693563, 34.7973274 ] } },
{ "type": "Feature", "properties": { "Image": "    ", "PlaceName": "유달산 목재문화 체험장", "MapX": 126.3748198, "MapY": 34.79293354, "TourType": "관광지" }, "geometry": { "type": "Point", "coordinates": [ 126.3748198, 34.79293354 ] } },
{ "type": "Feature", "properties": { "Image": "    ", "PlaceName": "유달산 조각공원", "MapX": 126.3737366, "MapY": 34.79440835, "TourType": "관광지" }, "geometry": { "type": "Point", "coordinates": [ 126.3737366, 34.79440835 ] } },
{ "type": "Feature", "properties": { "Image": "http://tong.visitkorea.or.kr/cms/resource/21/2670921_image2_1.jpg", "PlaceName": "유달산숯불갈비", "MapX": 126.3583334, "MapY": 34.75309331, "TourType": "음식점" }, "geometry": { "type": "Point", "coordinates": [ 126.3583334, 34.75309331 ] } },
{ "type": "Feature", "properties": { "Image": "    ", "PlaceName": "유달산일주도로", "MapX": 126.3811499, "MapY": 34.78884244, "TourType": "레포츠" }, "geometry": { "type": "Point", "coordinates": [ 126.3811499, 34.78884244 ] } },
{ "type": "Feature", "properties": { "Image": "    ", "PlaceName": "유달유원지", "MapX": 126.3674095, "MapY": 34.78780344, "TourType": "관광지" }, "geometry": { "type": "Point", "coordinates": [ 126.3674095, 34.78780344 ] } },
{ "type": "Feature", "properties": { "Image": "    ", "PlaceName": "유성횟집", "MapX": 126.3654648, "MapY": 34.80534588, "TourType": "음식점" }, "geometry": { "type": "Point", "coordinates": [ 126.3654648, 34.80534588 ] } },
{ "type": "Feature", "properties": { "Image": "    ", "PlaceName": "이난영의 목포의 눈물 노래비", "MapX": 126.3742645, "MapY": 34.78724806, "TourType": "관광지" }, "geometry": { "type": "Point", "coordinates": [ 126.3742645, 34.78724806 ] } },
{ "type": "Feature", "properties": { "Image": "http://tong.visitkorea.or.kr/cms/resource/23/2886623_image2_1.jpg", "PlaceName": "이니스프리 목포점", "MapX": 126.3841607, "MapY": 34.79074783, "TourType": "쇼핑" }, "geometry": { "type": "Point", "coordinates": [ 126.3841607, 34.79074783 ] } },
{ "type": "Feature", "properties": { "Image": "http://tong.visitkorea.or.kr/cms/resource/93/2886593_image2_1.jpg", "PlaceName": "이마트 목포", "MapX": 126.4252205, "MapY": 34.81166559, "TourType": "쇼핑" }, "geometry": { "type": "Point", "coordinates": [ 126.4252205, 34.81166559 ] } },
{ "type": "Feature", "properties": { "Image": "    ", "PlaceName": "이훈동 정원", "MapX": 126.3799529, "MapY": 34.78749535, "TourType": "관광지" }, "geometry": { "type": "Point", "coordinates": [ 126.3799529, 34.78749535 ] } },
{ "type": "Feature", "properties": { "Image": "    ", "PlaceName": "일식수", "MapX": 126.4355255, "MapY": 34.79804785, "TourType": "음식점" }, "geometry": { "type": "Point", "coordinates": [ 126.4355255, 34.79804785 ] } },
{ "type": "Feature", "properties": { "Image": "http://tong.visitkorea.or.kr/cms/resource/72/2798772_image2_1.JPG", "PlaceName": "장미의거리", "MapX": 126.4257707, "MapY": 34.8022611, "TourType": "관광지" }, "geometry": { "type": "Point", "coordinates": [ 126.4257707, 34.8022611 ] } },
{ "type": "Feature", "properties": { "Image": "http://tong.visitkorea.or.kr/cms/resource/04/2666604_image2_1.jpg", "PlaceName": "장수옥설렁탕", "MapX": 126.4357865, "MapY": 34.80252235, "TourType": "음식점" }, "geometry": { "type": "Point", "coordinates": [ 126.4357865, 34.80252235 ] } },
{ "type": "Feature", "properties": { "Image": "http://tong.visitkorea.or.kr/cms/resource/97/1973697_image2_1.jpg", "PlaceName": "장터 하당", "MapX": 126.4309147, "MapY": 34.80226674, "TourType": "음식점" }, "geometry": { "type": "Point", "coordinates": [ 126.4309147, 34.80226674 ] } },
{ "type": "Feature", "properties": { "Image": "http://tong.visitkorea.or.kr/cms/resource/32/1996532_image2_1.jpg", "PlaceName": "장터식당", "MapX": 126.3834137, "MapY": 34.78492347, "TourType": "음식점" }, "geometry": { "type": "Point", "coordinates": [ 126.3834137, 34.78492347 ] } },
{ "type": "Feature", "properties": { "Image": "http://tong.visitkorea.or.kr/cms/resource/66/2682466_image2_1.jpg", "PlaceName": "전복장터", "MapX": 126.4276121, "MapY": 34.80441644, "TourType": "음식점" }, "geometry": { "type": "Point", "coordinates": [ 126.4276121, 34.80441644 ] } },
{ "type": "Feature", "properties": { "Image": "http://tong.visitkorea.or.kr/cms/resource/06/2876206_image2_1.JPG", "PlaceName": "조선쫄복탕", "MapX": 126.377131, "MapY": 34.78087382, "TourType": "음식점" }, "geometry": { "type": "Point", "coordinates": [ 126.377131, 34.78087382 ] } },
{ "type": "Feature", "properties": { "Image": "http://tong.visitkorea.or.kr/cms/resource/08/2662408_image2_1.jpg", "PlaceName": "중앙횟집", "MapX": 126.3842858, "MapY": 34.78612057, "TourType": "음식점" }, "geometry": { "type": "Point", "coordinates": [ 126.3842858, 34.78612057 ] } },
{ "type": "Feature", "properties": { "Image": "http://tong.visitkorea.or.kr/cms/resource/40/1996540_image2_1.jpg", "PlaceName": "중화루(목포)", "MapX": 126.3848413, "MapY": 34.78974795, "TourType": "음식점" }, "geometry": { "type": "Point", "coordinates": [ 126.3848413, 34.78974795 ] } },
{ "type": "Feature", "properties": { "Image": "    ", "PlaceName": "지에스지엠패밀리", "MapX": 126.380536, "MapY": 34.79154212, "TourType": "쇼핑" }, "geometry": { "type": "Point", "coordinates": [ 126.380536, 34.79154212 ] } },
{ "type": "Feature", "properties": { "Image": "http://tong.visitkorea.or.kr/cms/resource/54/2682454_image2_1.jpg", "PlaceName": "진이맛집", "MapX": 126.4383472, "MapY": 34.80821897, "TourType": "음식점" }, "geometry": { "type": "Point", "coordinates": [ 126.4383472, 34.80821897 ] } },
{ "type": "Feature", "properties": { "Image": "http://tong.visitkorea.or.kr/cms/resource/09/2666609_image2_1.jpg", "PlaceName": "짬뽕공장", "MapX": 126.3802053, "MapY": 34.80134101, "TourType": "음식점" }, "geometry": { "type": "Point", "coordinates": [ 126.3802053, 34.80134101 ] } },
{ "type": "Feature", "properties": { "Image": "    ", "PlaceName": "초원음식점", "MapX": 126.3834442, "MapY": 34.78682881, "TourType": "음식점" }, "geometry": { "type": "Point", "coordinates": [ 126.3834442, 34.78682881 ] } },
{ "type": "Feature", "properties": { "Image": "    ", "PlaceName": "최소한끼", "MapX": 126.3809028, "MapY": 34.78665657, "TourType": "음식점" }, "geometry": { "type": "Point", "coordinates": [ 126.3809028, 34.78665657 ] } },
{ "type": "Feature", "properties": { "Image": "    ", "PlaceName": "춤추는 바다분수", "MapX": 126.4306953, "MapY": 34.79879768, "TourType": "관광지" }, "geometry": { "type": "Point", "coordinates": [ 126.4306953, 34.79879768 ] } },
{ "type": "Feature", "properties": { "Image": "http://tong.visitkorea.or.kr/cms/resource/28/2858628_image2_1.jpg", "PlaceName": "카페델마르", "MapX": 126.3660568, "MapY": 34.78885885, "TourType": "음식점" }, "geometry": { "type": "Point", "coordinates": [ 126.3660568, 34.78885885 ] } },
{ "type": "Feature", "properties": { "Image": "http://tong.visitkorea.or.kr/cms/resource/74/2682474_image2_1.jpg", "PlaceName": "커피마시기좋은날", "MapX": 126.4226791, "MapY": 34.8084048, "TourType": "음식점" }, "geometry": { "type": "Point", "coordinates": [ 126.4226791, 34.8084048 ] } },
{ "type": "Feature", "properties": { "Image": "http://tong.visitkorea.or.kr/cms/resource/24/2876224_image2_1.JPG", "PlaceName": "커피창고로", "MapX": 126.430626, "MapY": 34.79575636, "TourType": "음식점" }, "geometry": { "type": "Point", "coordinates": [ 126.430626, 34.79575636 ] } },
{ "type": "Feature", "properties": { "Image": "    ", "PlaceName": "클라이드앤", "MapX": 126.3839219, "MapY": 34.79140886, "TourType": "쇼핑" }, "geometry": { "type": "Point", "coordinates": [ 126.3839219, 34.79140886 ] } },
{ "type": "Feature", "properties": { "Image": "http://tong.visitkorea.or.kr/cms/resource/18/2844018_image2_1.jpg", "PlaceName": "태동반점", "MapX": 126.3834303, "MapY": 34.79003678, "TourType": "음식점" }, "geometry": { "type": "Point", "coordinates": [ 126.3834303, 34.79003678 ] } },
{ "type": "Feature", "properties": { "Image": "http://tong.visitkorea.or.kr/cms/resource/12/2666612_image2_1.jpg", "PlaceName": "튼실이네전복", "MapX": 126.43507, "MapY": 34.79785064, "TourType": "음식점" }, "geometry": { "type": "Point", "coordinates": [ 126.43507, 34.79785064 ] } },
{ "type": "Feature", "properties": { "Image": "http://tong.visitkorea.or.kr/cms/resource/09/2662409_image2_1.jpg", "PlaceName": "포도원회집", "MapX": 126.3841247, "MapY": 34.7863872, "TourType": "음식점" }, "geometry": { "type": "Point", "coordinates": [ 126.3841247, 34.7863872 ] } },
{ "type": "Feature", "properties": { "Image": "http://tong.visitkorea.or.kr/cms/resource/49/2876249_image2_1.JPG", "PlaceName": "포미아구찜 평화광장점", "MapX": 126.4306065, "MapY": 34.79614798, "TourType": "음식점" }, "geometry": { "type": "Point", "coordinates": [ 126.4306065, 34.79614798 ] } },
{ "type": "Feature", "properties": { "Image": "http://tong.visitkorea.or.kr/cms/resource/72/2682472_image2_1.jpg", "PlaceName": "피자맘 하당", "MapX": 126.4181435, "MapY": 34.80341918, "TourType": "음식점" }, "geometry": { "type": "Point", "coordinates": [ 126.4181435, 34.80341918 ] } },
{ "type": "Feature", "properties": { "Image": "http://tong.visitkorea.or.kr/cms/resource/51/2682451_image2_1.jpg", "PlaceName": "하당먹거리", "MapX": 126.4306924, "MapY": 34.80546915, "TourType": "음식점" }, "geometry": { "type": "Point", "coordinates": [ 126.4306924, 34.80546915 ] } },
{ "type": "Feature", "properties": { "Image": "http://tong.visitkorea.or.kr/cms/resource/65/2682465_image2_1.jpg", "PlaceName": "하당일번지", "MapX": 126.4225155, "MapY": 34.7985198, "TourType": "음식점" }, "geometry": { "type": "Point", "coordinates": [ 126.4225155, 34.7985198 ] } },
{ "type": "Feature", "properties": { "Image": "http://tong.visitkorea.or.kr/cms/resource/07/2662407_image2_1.jpg", "PlaceName": "하얀목화", "MapX": 126.3803723, "MapY": 34.78651768, "TourType": "음식점" }, "geometry": { "type": "Point", "coordinates": [ 126.3803723, 34.78651768 ] } },
{ "type": "Feature", "properties": { "Image": "http://tong.visitkorea.or.kr/cms/resource/63/2682463_image2_1.jpg", "PlaceName": "한가득식당", "MapX": 126.4248456, "MapY": 34.80835484, "TourType": "음식점" }, "geometry": { "type": "Point", "coordinates": [ 126.4248456, 34.80835484 ] } },
{ "type": "Feature", "properties": { "Image": "http://tong.visitkorea.or.kr/cms/resource/75/1974275_image2_1.jpg", "PlaceName": "한국추어탕", "MapX": 126.4196015, "MapY": 34.81320143, "TourType": "음식점" }, "geometry": { "type": "Point", "coordinates": [ 126.4196015, 34.81320143 ] } },
{ "type": "Feature", "properties": { "Image": "http://tong.visitkorea.or.kr/cms/resource/81/1974281_image2_1.jpg", "PlaceName": "한미르", "MapX": 126.3785612, "MapY": 34.79119213, "TourType": "음식점" }, "geometry": { "type": "Point", "coordinates": [ 126.3785612, 34.79119213 ] } },
{ "type": "Feature", "properties": { "Image": "http://tong.visitkorea.or.kr/cms/resource/18/2666618_image2_1.jpg", "PlaceName": "한사랑한우명가", "MapX": 126.4267788, "MapY": 34.80560796, "TourType": "음식점" }, "geometry": { "type": "Point", "coordinates": [ 126.4267788, 34.80560796 ] } },
{ "type": "Feature", "properties": { "Image": "http://tong.visitkorea.or.kr/cms/resource/79/2682479_image2_1.jpg", "PlaceName": "한성", "MapX": 126.4306231, "MapY": 34.80104465, "TourType": "음식점" }, "geometry": { "type": "Point", "coordinates": [ 126.4306231, 34.80104465 ] } },
{ "type": "Feature", "properties": { "Image": "http://tong.visitkorea.or.kr/cms/resource/19/2666619_image2_1.jpg", "PlaceName": "한소끔", "MapX": 126.4194851, "MapY": 34.80472183, "TourType": "음식점" }, "geometry": { "type": "Point", "coordinates": [ 126.4194851, 34.80472183 ] } },
{ "type": "Feature", "properties": { "Image": "    ", "PlaceName": "해관1897", "MapX": 126.3831305, "MapY": 34.78328476, "TourType": "음식점" }, "geometry": { "type": "Point", "coordinates": [ 126.3831305, 34.78328476 ] } },
{ "type": "Feature", "properties": { "Image": "http://tong.visitkorea.or.kr/cms/resource/53/2682453_image2_1.jpg", "PlaceName": "해남뻘전복전문점", "MapX": 126.4323061, "MapY": 34.80572193, "TourType": "음식점" }, "geometry": { "type": "Point", "coordinates": [ 126.4323061, 34.80572193 ] } },
{ "type": "Feature", "properties": { "Image": "http://tong.visitkorea.or.kr/cms/resource/10/2662410_image2_1.jpg", "PlaceName": "해뜰날포차식당", "MapX": 126.3866911, "MapY": 34.78809539, "TourType": "음식점" }, "geometry": { "type": "Point", "coordinates": [ 126.3866911, 34.78809539 ] } },
{ "type": "Feature", "properties": { "Image": "http://tong.visitkorea.or.kr/cms/resource/69/2876269_image2_1.JPG", "PlaceName": "해빔 본점", "MapX": 126.4300455, "MapY": 34.79469258, "TourType": "음식점" }, "geometry": { "type": "Point", "coordinates": [ 126.4300455, 34.79469258 ] } },
{ "type": "Feature", "properties": { "Image": "http://tong.visitkorea.or.kr/cms/resource/89/2886589_image2_1.jpg", "PlaceName": "홈플러스 목포", "MapX": 126.3996479, "MapY": 34.80597692, "TourType": "쇼핑" }, "geometry": { "type": "Point", "coordinates": [ 126.3996479, 34.80597692 ] } },
{ "type": "Feature", "properties": { "Image": "http://tong.visitkorea.or.kr/cms/resource/46/1974346_image2_1.jpg", "PlaceName": "황금어장", "MapX": 126.4305149, "MapY": 34.79485368, "TourType": "음식점" }, "geometry": { "type": "Point", "coordinates": [ 126.4305149, 34.79485368 ] } },
{ "type": "Feature", "properties": { "Image": "http://tong.visitkorea.or.kr/cms/resource/69/2682469_image2_1.jpg", "PlaceName": "59년왕십리연탄곱창구이", "MapX": 126.4221765, "MapY": 34.80573287, "TourType": "음식점" }, "geometry": { "type": "Point", "coordinates": [ 126.4221765, 34.80573287 ] } },
{ "type": "Feature", "properties": { "Image": "    ", "PlaceName": "EYESAVER 안경콘택트 목포점", "MapX": 126.3845162, "MapY": 34.79153663, "TourType": "쇼핑" }, "geometry": { "type": "Point", "coordinates": [ 126.3845162, 34.79153663 ] } },
{ "type": "Feature", "properties": { "Image": "http://tong.visitkorea.or.kr/cms/resource/27/2886627_image2_1.jpg", "PlaceName": "E안경 목포점", "MapX": 126.3838941, "MapY": 34.7906145, "TourType": "쇼핑" }, "geometry": { "type": "Point", "coordinates": [ 126.3838941, 34.7906145 ] } },
{ "type": "Feature", "properties": { "Image": "    ", "PlaceName": "OENS", "MapX": 126.3850079, "MapY": 34.78942021, "TourType": "쇼핑" }, "geometry": { "type": "Point", "coordinates": [ 126.3850079, 34.78942021 ] } },
{ "type": "Feature", "properties": { "Image": "    ", "PlaceName": "[착한가게] 다순구미감자탕", "MapX": 126.3948625, "MapY": 34.79323661, "TourType": "음식점" }, "geometry": { "type": "Point", "coordinates": [ 126.3948625, 34.79323661 ] } },
{ "type": "Feature", "properties": { "Image": "    ", "PlaceName": "[착한가게]종가집", "MapX": 126.3832192, "MapY": 34.79000623, "TourType": "음식점" }, "geometry": { "type": "Point", "coordinates": [ 126.3832192, 34.79000623 ] } },
{ "type": "Feature", "properties": { "Image": "    ", "PlaceName": "[착한가게]푸른솔아구집", "MapX": 126.3803917, "MapY": 34.78600108, "TourType": "음식점" }, "geometry": { "type": "Point", "coordinates": [ 126.3803917, 34.78600108 ] } }
]
}
